{
  "norad_id": 43873,
  "name": "NAVSTAR 77 (USA 289)",
  "history": [
    {
      "epoch": "2026-03-28T06:20:56.016672Z",
      "apogee_km": 20283.308605407514,
      "perigee_km": 20082.152530966607,
      "latitude_deg": 12.030818977860088,
      "longitude_deg": -177.17217036936339,
      "height_km": 20282.559383146337,
      "semi_major_axis_km": 26560.86756818706,
      "eccentricity": 0.0037867,
      "inclination_deg": 55.6315,
      "raan_deg": 95.3771,
      "arg_perigee_deg": 198.7638,
      "mean_anomaly_deg": 175.851,
      "mean_motion_rev_day": 2.00557717
    }
  ]
}